[
    {
        "name": "Jason Miller",
        "postcode": 2000
    },
    {
        "name": "Brian Hudson",
        "postcode": 6000
    },
    {
        "name": "Meghan Rosetta",
        "postcode": 6001
    },    {
        "name": "Rosie Marie",
        "postcode": 6005
    },
    {
        "name": "Ben Brown",
        "postcode": 7455
    },
    {
        "name": "Michael Sanders",
        "postcode": 400017
    },    {
        "name": "Tara Bosnan",
        "postcode": 6500
    },
    {
        "name": "Mike Stevenson",
        "postcode": 5200
    },
    {
        "name": "Ellie Night",
        "postcode": 6322
    },    {
        "name": "Moses Right",
        "postcode": 894441
    },
    {
        "name": "Paul Bend",
        "postcode": 6003
    },
    {
        "name": "Eddie Humpharies",
        "postcode": 700017
    },    {
        "name": "Haylay Gibson",
        "postcode": 2100
    },
    {
        "name": "Tasha Bose",
        "postcode": 6000
    },
    {
        "name": "Jose Fleming",
        "postcode": 360012333
    },    {
        "name": "Mel Black",
        "postcode": 6100
    },
    {
        "name": "Rashmi Gupta",
        "postcode": 6030
    }
]